CCSDS_OMM_VERS = 2.0
CREATION_DATE  = 
ORIGINATOR     = 

OBJECT_NAME    = COSMOS 2058
OBJECT_ID      = 1990-010A
CENTER_NAME    = EARTH
REF_FRAME      = TEME
TIME_SYSTEM    = UTC
MEAN_ELEMENT_THEORY = SGP/SGP4

EPOCH          = 2026-03-28T02:52:03.886752
MEAN_MOTION    = 15.11484298
ECCENTRICITY   = .00074314
INCLINATION    = 82.4687
RA_OF_ASC_NODE = 29.2669
ARG_OF_PERICENTER = 270.8689
MEAN_ANOMALY   = 89.1690

EPHEMERIS_TYPE = 0
CLASSIFICATION_TYPE = U
NORAD_CAT_ID   = 20465
ELEMENT_SET_NO = 999
REV_AT_EPOCH   = 94502
BSTAR          = .29807223E-3
MEAN_MOTION_DOT = .5074E-4
MEAN_MOTION_DDOT = 0

CCSDS_OMM_VERS = 2.0
CREATION_DATE  = 
ORIGINATOR     = 

OBJECT_NAME    = SL-14 R/B
OBJECT_ID      = 1990-010B
CENTER_NAME    = EARTH
REF_FRAME      = TEME
TIME_SYSTEM    = UTC
MEAN_ELEMENT_THEORY = SGP/SGP4

EPOCH          = 2026-03-28T04:00:44.218944
MEAN_MOTION    = 14.83585646
ECCENTRICITY   = .0018573
INCLINATION    = 82.4996
RA_OF_ASC_NODE = 250.0270
ARG_OF_PERICENTER = 236.6748
MEAN_ANOMALY   = 123.2689

EPHEMERIS_TYPE = 0
CLASSIFICATION_TYPE = U
NORAD_CAT_ID   = 20466
ELEMENT_SET_NO = 999
REV_AT_EPOCH   = 93122
BSTAR          = .62921909E-4
MEAN_MOTION_DOT = .543E-5
MEAN_MOTION_DDOT = 0

CCSDS_OMM_VERS = 2.0
CREATION_DATE  = 
ORIGINATOR     = 

OBJECT_NAME    = SL-14 R/B
OBJECT_ID      = 1990-018B
CENTER_NAME    = EARTH
REF_FRAME      = TEME
TIME_SYSTEM    = UTC
MEAN_ELEMENT_THEORY = SGP/SGP4

EPOCH          = 2026-03-28T01:37:30.473184
MEAN_MOTION    = 14.82162673
ECCENTRICITY   = .00169979
INCLINATION    = 82.5236
RA_OF_ASC_NODE = 205.9151
ARG_OF_PERICENTER = 35.9464
MEAN_ANOMALY   = 324.2890

EPHEMERIS_TYPE = 0
CLASSIFICATION_TYPE = U
NORAD_CAT_ID   = 20511
ELEMENT_SET_NO = 999
REV_AT_EPOCH   = 92530
BSTAR          = .53461483E-4
MEAN_MOTION_DOT = .45E-5
MEAN_MOTION_DDOT = 0

CCSDS_OMM_VERS = 2.0
CREATION_DATE  = 
ORIGINATOR     = 

OBJECT_NAME    = HST
OBJECT_ID      = 1990-037B
CENTER_NAME    = EARTH
REF_FRAME      = TEME
TIME_SYSTEM    = UTC
MEAN_ELEMENT_THEORY = SGP/SGP4

EPOCH          = 2026-03-28T05:03:51.440256
MEAN_MOTION    = 15.29763624
ECCENTRICITY   = .00016683
INCLINATION    = 28.4721
RA_OF_ASC_NODE = 273.6275
ARG_OF_PERICENTER = 343.6247
MEAN_ANOMALY   = 16.4295

EPHEMERIS_TYPE = 0
CLASSIFICATION_TYPE = U
NORAD_CAT_ID   = 20580
ELEMENT_SET_NO = 999
REV_AT_EPOCH   = 77615
BSTAR          = .28741398E-3
MEAN_MOTION_DOT = .8763E-4
MEAN_MOTION_DDOT = 0

CCSDS_OMM_VERS = 2.0
CREATION_DATE  = 
ORIGINATOR     = 

OBJECT_NAME    = SL-16 R/B
OBJECT_ID      = 1990-046B
CENTER_NAME    = EARTH
REF_FRAME      = TEME
TIME_SYSTEM    = UTC
MEAN_ELEMENT_THEORY = SGP/SGP4

EPOCH          = 2026-03-28T05:14:34.410912
MEAN_MOTION    = 14.15015839
ECCENTRICITY   = .00163242
INCLINATION    = 70.9975
RA_OF_ASC_NODE = 258.9963
ARG_OF_PERICENTER = 275.3307
MEAN_ANOMALY   = 84.5953

EPHEMERIS_TYPE = 0
CLASSIFICATION_TYPE = U
NORAD_CAT_ID   = 20625
ELEMENT_SET_NO = 999
REV_AT_EPOCH   = 85101
BSTAR          = .15715555E-3
MEAN_MOTION_DOT = .257E-5
MEAN_MOTION_DDOT = 0

CCSDS_OMM_VERS = 2.0
CREATION_DATE  = 
ORIGINATOR     = 

OBJECT_NAME    = COSMOS 2084
OBJECT_ID      = 1990-055A
CENTER_NAME    = EARTH
REF_FRAME      = TEME
TIME_SYSTEM    = UTC
MEAN_ELEMENT_THEORY = SGP/SGP4

EPOCH          = 2026-03-27T22:03:15.066432
MEAN_MOTION    = 15.05747385
ECCENTRICITY   = .0014196
INCLINATION    = 62.7892
RA_OF_ASC_NODE = 273.3985
ARG_OF_PERICENTER = 195.6384
MEAN_ANOMALY   = 164.4280

EPHEMERIS_TYPE = 0
CLASSIFICATION_TYPE = U
NORAD_CAT_ID   = 20663
ELEMENT_SET_NO = 999
REV_AT_EPOCH   = 93906
BSTAR          = .19688E-3
MEAN_MOTION_DOT = .2668E-4
MEAN_MOTION_DDOT = 0

CCSDS_OMM_VERS = 2.0
CREATION_DATE  = 
ORIGINATOR     = 

OBJECT_NAME    = SL-6 R/B(2)
OBJECT_ID      = 1990-055D
CENTER_NAME    = EARTH
REF_FRAME      = TEME
TIME_SYSTEM    = UTC
MEAN_ELEMENT_THEORY = SGP/SGP4

EPOCH          = 2026-03-28T06:13:03.271296
MEAN_MOTION    = 15.03682486
ECCENTRICITY   = .00278331
INCLINATION    = 62.7831
RA_OF_ASC_NODE = 190.6977
ARG_OF_PERICENTER = 351.2759
MEAN_ANOMALY   = 8.7853

EPHEMERIS_TYPE = 0
CLASSIFICATION_TYPE = U
NORAD_CAT_ID   = 20666
ELEMENT_SET_NO = 999
REV_AT_EPOCH   = 94098
BSTAR          = .16524363E-3
MEAN_MOTION_DOT = .209E-4
MEAN_MOTION_DDOT = 0

CCSDS_OMM_VERS = 2.0
CREATION_DATE  = 
ORIGINATOR     = 

OBJECT_NAME    = SL-8 R/B
OBJECT_ID      = 1990-078B
CENTER_NAME    = EARTH
REF_FRAME      = TEME
TIME_SYSTEM    = UTC
MEAN_ELEMENT_THEORY = SGP/SGP4

EPOCH          = 2026-03-28T02:50:02.861088
MEAN_MOTION    = 14.89612537
ECCENTRICITY   = .03585565
INCLINATION    = 82.9022
RA_OF_ASC_NODE = 234.7274
ARG_OF_PERICENTER = 311.8564
MEAN_ANOMALY   = 45.2553

EPHEMERIS_TYPE = 0
CLASSIFICATION_TYPE = U
NORAD_CAT_ID   = 20775
ELEMENT_SET_NO = 999
REV_AT_EPOCH   = 81204
BSTAR          = .36185933E-3
MEAN_MOTION_DOT = .12216E-3
MEAN_MOTION_DDOT = 0

CCSDS_OMM_VERS = 2.0
CREATION_DATE  = 
ORIGINATOR     = 

OBJECT_NAME    = SL-8 R/B
OBJECT_ID      = 1991-006B
CENTER_NAME    = EARTH
REF_FRAME      = TEME
TIME_SYSTEM    = UTC
MEAN_ELEMENT_THEORY = SGP/SGP4

EPOCH          = 2026-03-28T07:03:16.948224
MEAN_MOTION    = 13.77497038
ECCENTRICITY   = .00218793
INCLINATION    = 82.9445
RA_OF_ASC_NODE = 156.2145
ARG_OF_PERICENTER = 346.6815
MEAN_ANOMALY   = 84.4427

EPHEMERIS_TYPE = 0
CLASSIFICATION_TYPE = U
NORAD_CAT_ID   = 21088
ELEMENT_SET_NO = 999
REV_AT_EPOCH   = 76663
BSTAR          = .69651048E-4
MEAN_MOTION_DOT = .85E-6
MEAN_MOTION_DDOT = 0

CCSDS_OMM_VERS = 2.0
CREATION_DATE  = 
ORIGINATOR     = 

OBJECT_NAME    = OKEAN-3
OBJECT_ID      = 1991-039A
CENTER_NAME    = EARTH
REF_FRAME      = TEME
TIME_SYSTEM    = UTC
MEAN_ELEMENT_THEORY = SGP/SGP4

EPOCH          = 2026-03-28T02:20:29.260032
MEAN_MOTION    = 15.04909050
ECCENTRICITY   = .00123261
INCLINATION    = 82.5165
RA_OF_ASC_NODE = 319.0083
ARG_OF_PERICENTER = 268.6709
MEAN_ANOMALY   = 91.3106

EPHEMERIS_TYPE = 0
CLASSIFICATION_TYPE = U
NORAD_CAT_ID   = 21397
ELEMENT_SET_NO = 999
REV_AT_EPOCH   = 86780
BSTAR          = .14964216E-3
MEAN_MOTION_DOT = .2148E-4
MEAN_MOTION_DDOT = 0

CCSDS_OMM_VERS = 2.0
CREATION_DATE  = 
ORIGINATOR     = 

OBJECT_NAME    = COSMOS 2151
OBJECT_ID      = 1991-042A
CENTER_NAME    = EARTH
REF_FRAME      = TEME
TIME_SYSTEM    = UTC
MEAN_ELEMENT_THEORY = SGP/SGP4

EPOCH          = 2026-03-28T05:26:10.432032
MEAN_MOTION    = 15.00183000
ECCENTRICITY   = .00124616
INCLINATION    = 82.4945
RA_OF_ASC_NODE = 65.7893
ARG_OF_PERICENTER = 5.2352
MEAN_ANOMALY   = 354.9000

EPHEMERIS_TYPE = 0
CLASSIFICATION_TYPE = U
NORAD_CAT_ID   = 21422
ELEMENT_SET_NO = 999
REV_AT_EPOCH   = 86597
BSTAR          = .20913319E-3
MEAN_MOTION_DOT = .2642E-4
MEAN_MOTION_DDOT = 0

CCSDS_OMM_VERS = 2.0
CREATION_DATE  = 
ORIGINATOR     = 

OBJECT_NAME    = SL-14 R/B
OBJECT_ID      = 1991-042B
CENTER_NAME    = EARTH
REF_FRAME      = TEME
TIME_SYSTEM    = UTC
MEAN_ELEMENT_THEORY = SGP/SGP4

EPOCH          = 2026-03-28T06:13:58.846368
MEAN_MOTION    = 14.81848118
ECCENTRICITY   = .00171686
INCLINATION    = 82.4955
RA_OF_ASC_NODE = 202.7722
ARG_OF_PERICENTER = 175.2300
MEAN_ANOMALY   = 184.9081

EPHEMERIS_TYPE = 0
CLASSIFICATION_TYPE = U
NORAD_CAT_ID   = 21423
ELEMENT_SET_NO = 999
REV_AT_EPOCH   = 85582
BSTAR          = .6298112E-4
MEAN_MOTION_DOT = .522E-5
MEAN_MOTION_DDOT = 0

